# Made by vec2tle, compiled May  7 2017 11:49:52
# Run at Sun May  7 11:50:35 2017
#
#    The following TLEs (Two-Line Elements) were generated by fitting
# a numerically-integrated ephemeris,  based on the orbit given below,
# to the SDP4/SGP4 models.  Each TLE is good for the interval between
# its epoch and the epoch of the subsequent TLE (usually one day).
# The maximum deviation between the numerically integrated ephemerides
# and the TLE-based ephemeris, in kilometers,  is given for each TLE
# as the "worst residual".
#
#    Be warned:  the error given is that between the numerically
# integrated ephems and the TLE model.  There will usually be at
# least some additional difference between the ephems and the actual
# motion of the satellite,  especially if the ephemerides are based
# on a short arc.  If the following orbital elements say something
# like "[based on] 10 observations 2015 Jan. 1-13",  and the TLEs
# are for 2015 May,  the extrapolation may be tenuous at best.  If
# your application requires a specific level of accuracy,  you may
# want to contact me;  I can give you some idea as to the fit of the
# underlying data (and possibly TLEs based on newer data).
#
#    For certain objects,  I use an alternative model in which most of
# the traditional TLE data is replaced by six signed 8-digit hex numbers.
# These six numbers are a state vector,  numerically integrated using
# a simplified force model.  This is necessary for objects at L2 or L1,
# and sometimes for objects in high orbits where the SDP4/SGP4 model
# fails.  I'll be posting source code for this.  But be aware:  it's my
# own extension,  doesn't work with other code,  and is therefore used
# only when necessary.
#
#    Note that for some cases,  the fit to SDP4/SGP4 fails,  and the
# "worst residual" is thousands or even hundreds of thousands of kilometers.
# (This usually happens near perigee for highly eccentric objects.)  In
# such cases,  we pretty much just have to throw up our hands and say
# that we can't use TLEs.  (Which is why I developed the above state
# vector version.)
#
#    Also,  if you use a TLE outside the "correct" time range (between
# its epoch and that of the next epoch),  all bets are off.  It usually
# seems to be a decent fit,  at least for a while,  but I don't
# recommend doing it.
#
# Ephem range: 57754.000000 58119.000000 1.000000
# Created Sun May  7 11:48:34 2017
# Ephemeris start:  1 Jan 2017  0:00:00
# Ephemeris end:    1 Jan 2018  0:00:00
# Times are all TDT
# Positions/velocities are in equatorial J2000
# Orbital elements:  2009-068B = NORAD 36109 = WF0AEDA = WGS 3 rk = S509590
#    Perigee 2017 Apr 20.109769 +/- 1.87e-5 TT =  2:38:04 (JD 2457863.609769)
# Epoch 2017 Apr 20.0 TT; AMR 0.029347 +/- 0.000215 m^2/kg      Gray
# M 313.1732007 +/- 0.007
# n 426.5937359494 +/- 0.000251       Peri.  267.9362116 +/- 0.007
# a 37721.925831 +/- 0.0148           Node   169.4956755 +/- 0.011
# e   0.821811948 +/- 1.13e-5         Incl.   43.3195389 +/- 0.0016
# P1215.18m/0.844d           H 28.5   G  0.15   U  7.2  
# q 6721.5964496 +/- 0.424    Q 68722.255213 +/- 0.45
# 27 of 133 observations 2017 Apr. 11-May 7; mean residual 4".873
#
# 1 NoradU COSPAR   Epoch.epoch     dn/dt/2  d2n/dt2/6 BSTAR    T El# C
# 2 NoradU Inclina RAAscNode Eccent  ArgPeri MeanAno  MeanMotion Rev# C

# Worst residual: 13.65 km
# MJD 57754.000000 (2017 Jan  1  0:00)
2009-068B = NORAD 36109 = WF0AEDA = WGS 3 rk = S509590
1 36109U 09068B   17001.49919926  .00000000  00000-0  00000-0 0    03
2 36109 020.8547 182.8149 8195594 241.8812 108.9244 01.18496913    07

# Worst residual: 12.76 km
# MJD 57755.000000 (2017 Jan  2  0:00)
2009-068B = NORAD 36109 = WF0AEDA = WGS 3 rk = S509590
1 36109U 09068B   17002.49919926  .00000000  00000-0  00000-0 0    04
2 36109 020.8508 182.6200 8196222 242.2146 175.4775 01.18494087    02

# Worst residual: 13.40 km
# MJD 57756.000000 (2017 Jan  3  0:00)
2009-068B = NORAD 36109 = WF0AEDA = WGS 3 rk = S509590
1 36109U 09068B   17003.49919926  .00000000  00000-0  00000-0 0    05
2 36109 020.8414 182.3971 8196724 242.5736 242.0264 01.18492816    07

# Worst residual: 12.63 km
# MJD 57757.000000 (2017 Jan  4  0:00)
2009-068B = NORAD 36109 = WF0AEDA = WGS 3 rk = S509590
1 36109U 09068B   17004.49919926  .00000000  00000-0  00000-0 0    06
2 36109 020.8351 182.1941 8197164 242.9131 308.5872 01.18500419    06

# Worst residual: 11.99 km
# MJD 57758.000000 (2017 Jan  5  0:00)
2009-068B = NORAD 36109 = WF0AEDA = WGS 3 rk = S509590
1 36109U 09068B   17005.49919926  .00000000  00000-0  00000-0 0    07
2 36109 020.8282 181.9861 8197227 243.2562 015.1428 01.18507746    07

# Worst residual: 13.29 km
# MJD 57759.000000 (2017 Jan  6  0:00)
2009-068B = NORAD 36109 = WF0AEDA = WGS 3 rk = S509590
1 36109U 09068B   17006.49919926  .00000000  00000-0  00000-0 0    08
2 36109 020.8215 181.7725 8197884 243.6008 081.7109 01.18500809    06

# Worst residual: 12.97 km
# MJD 57760.000000 (2017 Jan  7  0:00)
2009-068B = NORAD 36109 = WF0AEDA = WGS 3 rk = S509590
1 36109U 09068B   17007.49919926  .00000000  00000-0  00000-0 0    09
2 36109 020.8185 181.5784 8198156 243.9345 148.2592 01.18492939    04

# Worst residual: 13.03 km
# MJD 57761.000000 (2017 Jan  8  0:00)
2009-068B = NORAD 36109 = WF0AEDA = WGS 3 rk = S509590
1 36109U 09068B   17008.49919926  .00000000  00000-0  00000-0 0    00
2 36109 020.8120 181.3661 8198259 244.2842 214.8122 01.18490512    09

# Worst residual: 13.23 km
# MJD 57762.000000 (2017 Jan  9  0:00)
2009-068B = NORAD 36109 = WF0AEDA = WGS 3 rk = S509590
1 36109U 09068B   17009.49919926  .00000000  00000-0  00000-0 0    01
2 36109 020.8063 181.1595 8199052 244.6310 281.3591 01.18495388    00

# Worst residual: 11.84 km
# MJD 57763.000000 (2017 Jan 10  0:00)
2009-068B = NORAD 36109 = WF0AEDA = WGS 3 rk = S509590
1 36109U 09068B   17010.49919926  .00000000  00000-0  00000-0 0    03
2 36109 020.8008 180.9599 8199098 244.9667 347.9229 01.18505550    08

# Worst residual: 12.54 km
# MJD 57764.000000 (2017 Jan 11  0:00)
2009-068B = NORAD 36109 = WF0AEDA = WGS 3 rk = S509590
1 36109U 09068B   17011.49919926  .00000000  00000-0  00000-0 0    04
2 36109 020.7940 180.7462 8199415 245.3145 054.4810 01.18506679    07

# Worst residual: 13.76 km
# MJD 57765.000000 (2017 Jan 12  0:00)
2009-068B = NORAD 36109 = WF0AEDA = WGS 3 rk = S509590
1 36109U 09068B   17012.49919926  .00000000  00000-0  00000-0 0    05
2 36109 020.7882 180.5370 8200021 245.6582 121.0439 01.18496422    04

# Worst residual: 13.60 km
# MJD 57766.000000 (2017 Jan 13  0:00)
2009-068B = NORAD 36109 = WF0AEDA = WGS 3 rk = S509590
1 36109U 09068B   17013.49919926  .00000000  00000-0  00000-0 0    06
2 36109 020.7820 180.3275 8199831 246.0086 187.5890 01.18491667    02

# Worst residual: 13.89 km
# MJD 57767.000000 (2017 Jan 14  0:00)
2009-068B = NORAD 36109 = WF0AEDA = WGS 3 rk = S509590
1 36109U 09068B   17014.49919926  .00000000  00000-0  00000-0 0    07
2 36109 020.7737 180.1011 8200063 246.3696 254.1492 01.18494989    04

# Worst residual: 13.62 km
# MJD 57768.000000 (2017 Jan 15  0:00)
2009-068B = NORAD 36109 = WF0AEDA = WGS 3 rk = S509590
1 36109U 09068B   17015.49919926  .00000000  00000-0  00000-0 0    08
2 36109 020.7673 179.8931 8200211 246.7129 320.7113 01.18502029    04

# Worst residual: 11.62 km
# MJD 57769.000000 (2017 Jan 16  0:00)
2009-068B = NORAD 36109 = WF0AEDA = WGS 3 rk = S509590
1 36109U 09068B   17016.49919926  .00000000  00000-0  00000-0 0    09
2 36109 020.7611 179.6840 8200034 247.0501 027.2923 01.18507851    00

# Worst residual: 13.35 km
# MJD 57770.000000 (2017 Jan 17  0:00)
2009-068B = NORAD 36109 = WF0AEDA = WGS 3 rk = S509590
1 36109U 09068B   17017.49919926  .00000000  00000-0  00000-0 0    00
2 36109 020.7555 179.4720 8200644 247.3926 093.8609 01.18501074    04

# Worst residual: 14.36 km
# MJD 57771.000000 (2017 Jan 18  0:00)
2009-068B = NORAD 36109 = WF0AEDA = WGS 3 rk = S509590
1 36109U 09068B   17018.49919926  .00000000  00000-0  00000-0 0    01
2 36109 020.7518 179.2754 8201100 247.7226 160.4352 01.18494198    07

# Worst residual: 11.81 km
# MJD 57772.000000 (2017 Jan 19  0:00)
2009-068B = NORAD 36109 = WF0AEDA = WGS 3 rk = S509590
1 36109U 09068B   17019.49919926  .00000000  00000-0  00000-0 0    02
2 36109 020.7434 179.0489 8201724 248.0832 226.9987 01.18497619    09

# Worst residual: 12.75 km
# MJD 57773.000000 (2017 Jan 20  0:00)
2009-068B = NORAD 36109 = WF0AEDA = WGS 3 rk = S509590
1 36109U 09068B   17020.49919926  .00000000  00000-0  00000-0 0    04
2 36109 020.7381 178.8432 8202186 248.4254 293.5651 01.18499935    01

# Worst residual: 10.59 km
# MJD 57774.000000 (2017 Jan 21  0:00)
2009-068B = NORAD 36109 = WF0AEDA = WGS 3 rk = S509590
1 36109U 09068B   17021.49919926  .00000000  00000-0  00000-0 0    05
2 36109 020.7307 178.6287 8202592 248.7723 000.1394 01.18508440    08

# Worst residual: 12.50 km
# MJD 57775.000000 (2017 Jan 22  0:00)
2009-068B = NORAD 36109 = WF0AEDA = WGS 3 rk = S509590
1 36109U 09068B   17022.49919926  .00000000  00000-0  00000-0 0    06
2 36109 020.7243 178.4104 8202917 249.1212 066.7165 01.18504547    00

# Worst residual: 12.93 km
# MJD 57776.000000 (2017 Jan 23  0:00)
2009-068B = NORAD 36109 = WF0AEDA = WGS 3 rk = S509590
1 36109U 09068B   17023.49919926  .00000000  00000-0  00000-0 0    07
2 36109 020.7188 178.1956 8203597 249.4721 133.2808 01.18498585    01

# Worst residual: 13.95 km
# MJD 57777.000000 (2017 Jan 24  0:00)
2009-068B = NORAD 36109 = WF0AEDA = WGS 3 rk = S509590
1 36109U 09068B   17024.49919926  .00000000  00000-0  00000-0 0    08
2 36109 020.7123 177.9761 8203171 249.8283 199.8464 01.18490951    01

# Worst residual: 12.98 km
# MJD 57778.000000 (2017 Jan 25  0:00)
2009-068B = NORAD 36109 = WF0AEDA = WGS 3 rk = S509590
1 36109U 09068B   17025.49919926  .00000000  00000-0  00000-0 0    09
2 36109 020.7056 177.7481 8203814 250.1899 266.4212 01.18498752    04
